*******************************************************************************
Revised: June 21, 2016     Mars        499 / 4

PHYSICAL DATA (updated 2019-Oct-29):
 Vol. mean radius (km) = 3389.92+-0.04   Density (g/cm^3)  =  3.933(5+-4)
 Mass x10^23 (kg)  =    6.4171   Flattening, f     =  1/169.779
 Volume (x10^10 km^3)  =   16.318    Equatorial radius (km)=  3396.19
 Sidereal rot. period  =   24.622962 hr  Sid. rot. rate, rad/s =  0.0000708822 
 Mean solar day (sol)  =   88775.24415 s Polar gravity m/s^2   =  3.758
 Core radius (km)  = ~1700   Equ. gravity  m/s^2   =  3.71
 Geometric Albedo  =    0.150          

 GM (km^3/s^2)     = 42828.375214    Mass ratio (Sun/Mars) = 3098703.59
 GM 1-sigma (km^3/s^2) = + -  0.00028  Mass of atmosphere, kg= ~ 2.5 x 10^16
 Mean temperature (K)  =  210    Atmos. pressure (bar) =    0.0056 
 Obliquity to orbit    =   25.19 deg Max. angular diam.    =  17.9"
 Mean sidereal orb per =    1.88081578 y Visual mag. V(1,0)    =  - 1.52
 Mean sidereal orb per =  686.98 d   Orbital speed,  km/s  =  24.13
 Hill's sphere rad. Rp =  319.8  Escape speed, km/s    =   5.027
        Perihelion  Aphelion    Mean
 Solar Constant (W/m^2)     717     493     589
 Maximum Planetary IR (W/m^2)   470     315     390
 Minimum Planetary IR (W/m^2)    30  30  30
*******************************************************************************


*******************************************************************************
Ephemeris / WWW_USER Tue Aug 23 01:44:32 2022 Pasadena, USA  / Horizons    
*******************************************************************************
Target body name: Mars (499)      {source: mar097}
Center body name: Earth (399)     {source: mar097}
Center-site name: GEOCENTRIC
*******************************************************************************
Start time  : A.D. 2022-Jan-01:00.0000 UT  
Stop  time  : A.D. 2022-Dec-31:00.0000 UT  
Step-size   : 1440 minutes
*******************************************************************************
Target pole/equ : IAU_MARS        {West-longitude positive}
Target radii    : 3396.2 x 3396.2 x 3376.2 km {Equator, meridian, pole}    
Center geodetic : 0.00000000,0.00000000,0.0000000 {E-lon(deg),Lat(deg),Alt(km)}
Center cylindric: 0.00000000,0.00000000,0.0000000 {E-lon(deg),Dxy(km),Dz(km)}
Center pole/equ : ITRF93      {East-longitude positive}
Center radii    : 6378.1 x 6378.1 x 6356.8 km {Equator, meridian, pole}    
Target primary  : Sun
Vis. interferer : MOON (R_eq= 1737.400) km    {source: mar097}
Rel. light bend : Sun, EARTH      {source: mar097}
Rel. lght bnd GM: 1.3271E+11, 3.9860E+05 km^3/s^2      
Atmos refraction: NO (AIRLESS)
RA format   : HMS
Time format : CAL 
EOP file    : eop.220821.p221114           
EOP coverage    : DATA-BASED 1962-JAN-20 TO 2022-AUG-21. PREDICTS-> 2022-NOV-13
Units conversion: 1 au= 149597870.700 km, c= 299792.458 km/s, 1 day= 86400.0 s 
Table cut-offs 1: Elevation (-90.0deg=NO ),Airmass (>38.000=NO), Daylight (NO )
Table cut-offs 2: Solar elongation (  0.0,180.0=NO ),Local Hour Angle( 0.0=NO )
Table cut-offs 3: RA/DEC angular rate ( 0.0=NO )       
*******************************************************************************
Date__(UT)__HR:MN R.A._____(ICRF)_____DEC
**********************************************
$$SOE
2022-Jul-01 01 41 43.37 + 08 35 55.1
2022-Jul-02 01 44 23.41 + 08 51 09.8
2022-Jul-03 01 47 03.33 + 09 06 17.9
2022-Jul-04 01 49 43.11 + 09 21 19.4
2022-Jul-05 01 52 22.76 + 09 36 14.2
2022-Jul-06 01 55 02.27 + 09 51 02.1
2022-Jul-07 01 57 41.64 + 10 05 43.1
2022-Jul-08 02 00 20.88 + 10 20 17.0
2022-Jul-09 02 02 59.97 + 10 34 43.8
2022-Jul-10 02 05 38.92 + 10 49 03.3
2022-Jul-11 02 08 17.73 + 11 03 15.5
2022-Jul-12 02 10 56.39 + 11 17 20.2
2022-Jul-13 02 13 34.91 + 11 31 17.5
2022-Jul-14 02 16 13.28 + 11 45 07.2
2022-Jul-15 02 18 51.49 + 11 58 49.2
2022-Jul-16 02 21 29.55 + 12 12 23.4
2022-Jul-17 02 24 07.44 + 12 25 49.8
2022-Jul-18 02 26 45.15 + 12 39 08.1
2022-Jul-19 02 29 22.68 + 12 52 18.4
2022-Jul-20 02 32 00.00 + 13 05 20.4
2022-Jul-21 02 34 37.12 + 13 18 14.1
2022-Jul-22 02 37 14.02 + 13 30 59.4
2022-Jul-23 02 39 50.69 + 13 43 36.1
2022-Jul-24 02 42 27.11 + 13 56 04.3
2022-Jul-25 02 45 03.27 + 14 08 23.7
2022-Jul-26 02 47 39.16 + 14 20 34.3
2022-Jul-27 02 50 14.77 + 14 32 36.0
2022-Jul-28 02 52 50.08 + 14 44 28.8
2022-Jul-29 02 55 25.08 + 14 56 12.6
2022-Jul-30 02 57 59.76 + 15 07 47.3
2022-Jul-31 03 00 34.11 + 15 19 12.9
2022-Aug-01 03 03 08.10 + 15 30 29.3
2022-Aug-02 03 05 41.74 + 15 41 36.5
2022-Aug-03 03 08 15.00 + 15 52 34.5
2022-Aug-04 03 10 47.88 + 16 03 23.2
2022-Aug-05 03 13 20.36 + 16 14 02.6
2022-Aug-06 03 15 52.43 + 16 24 32.7
2022-Aug-07 03 18 24.08 + 16 34 53.6
2022-Aug-08 03 20 55.30 + 16 45 05.1
2022-Aug-09 03 23 26.08 + 16 55 07.4
2022-Aug-10 03 25 56.40 + 17 05 00.4
2022-Aug-11 03 28 26.26 + 17 14 44.1
2022-Aug-12 03 30 55.63 + 17 24 18.6
2022-Aug-13 03 33 24.51 + 17 33 43.8
2022-Aug-14 03 35 52.86 + 17 42 59.8
2022-Aug-15 03 38 20.69 + 17 52 06.5
2022-Aug-16 03 40 47.95 + 18 01 03.8
2022-Aug-17 03 43 14.63 + 18 09 51.9
2022-Aug-18 03 45 40.70 + 18 18 30.8
2022-Aug-19 03 48 06.14 + 18 27 00.3
2022-Aug-20 03 50 30.93 + 18 35 20.6
2022-Aug-21 03 52 55.03 + 18 43 31.6
2022-Aug-22 03 55 18.42 + 18 51 33.3
2022-Aug-23 03 57 41.08 + 18 59 25.9
2022-Aug-24 04 00 02.98 + 19 07 09.3
2022-Aug-25 04 02 24.09 + 19 14 43.6
2022-Aug-26 04 04 44.38 + 19 22 08.8
2022-Aug-27 04 07 03.82 + 19 29 25.0
2022-Aug-28 04 09 22.40 + 19 36 32.3
2022-Aug-29 04 11 40.08 + 19 43 30.7
2022-Aug-30 04 13 56.83 + 19 50 20.3
2022-Aug-31 04 16 12.63 + 19 57 01.2
2022-Sep-01 04 18 27.45 + 20 03 33.5
2022-Sep-02 04 20 41.27 + 20 09 57.4
2022-Sep-03 04 22 54.06 + 20 16 12.9
2022-Sep-04 04 25 05.80 + 20 22 20.1
2022-Sep-05 04 27 16.46 + 20 28 19.2
2022-Sep-06 04 29 26.01 + 20 34 10.4
2022-Sep-07 04 31 34.43 + 20 39 53.7
2022-Sep-08 04 33 41.70 + 20 45 29.2
2022-Sep-09 04 35 47.78 + 20 50 57.2
2022-Sep-10 04 37 52.64 + 20 56 17.7
2022-Sep-11 04 39 56.25 + 21 01 30.9
2022-Sep-12 04 41 58.57 + 21 06 36.9
2022-Sep-13 04 43 59.57 + 21 11 35.8
2022-Sep-14 04 45 59.20 + 21 16 27.7
2022-Sep-15 04 47 57.42 + 21 21 12.8
2022-Sep-16 04 49 54.20 + 21 25 51.3
2022-Sep-17 04 51 49.48 + 21 30 23.2
2022-Sep-18 04 53 43.22 + 21 34 48.7
2022-Sep-19 04 55 35.38 + 21 39 08.0
2022-Sep-20 04 57 25.91 + 21 43 21.2
2022-Sep-21 04 59 14.77 + 21 47 28.5
2022-Sep-22 05 01 01.90 + 21 51 30.1
2022-Sep-23 05 02 47.26 + 21 55 26.2
2022-Sep-24 05 04 30.81 + 21 59 16.9
2022-Sep-25 05 06 12.49 + 22 03 02.4
2022-Sep-26 05 07 52.26 + 22 06 42.9
2022-Sep-27 05 09 30.06 + 22 10 18.7
2022-Sep-28 05 11 05.86 + 22 13 50.0
2022-Sep-29 05 12 39.61 + 22 17 16.8
2022-Sep-30 05 14 11.25 + 22 20 39.6
2022-Oct-01 05 15 40.76 + 22 23 58.5
2022-Oct-02 05 17 08.07 + 22 27 13.6
2022-Oct-03 05 18 33.15 + 22 30 25.3
2022-Oct-04 05 19 55.96 + 22 33 33.8
2022-Oct-05 05 21 16.44 + 22 36 39.3
2022-Oct-06 05 22 34.55 + 22 39 41.9
2022-Oct-07 05 23 50.24 + 22 42 41.9
2022-Oct-08 05 25 03.46 + 22 45 39.6
2022-Oct-09 05 26 14.15 + 22 48 35.0
2022-Oct-10 05 27 22.26 + 22 51 28.4
2022-Oct-11 05 28 27.72 + 22 54 19.9
2022-Oct-12 05 29 30.47 + 22 57 09.8
2022-Oct-13 05 30 30.46 + 22 59 58.2
2022-Oct-14 05 31 27.61 + 23 02 45.3
2022-Oct-15 05 32 21.87 + 23 05 31.2
2022-Oct-16 05 33 13.16 + 23 08 16.2
2022-Oct-17 05 34 01.42 + 23 11 00.3
2022-Oct-18 05 34 46.59 + 23 13 43.7
2022-Oct-19 05 35 28.60 + 23 16 26.5
2022-Oct-20 05 36 07.38 + 23 19 09.0
2022-Oct-21 05 36 42.88 + 23 21 51.1
2022-Oct-22 05 37 15.03 + 23 24 33.1
2022-Oct-23 05 37 43.78 + 23 27 15.0
2022-Oct-24 05 38 09.06 + 23 29 56.9
2022-Oct-25 05 38 30.82 + 23 32 38.9
2022-Oct-26 05 38 49.02 + 23 35 21.0
2022-Oct-27 05 39 03.60 + 23 38 03.4
2022-Oct-28 05 39 14.53 + 23 40 46.0
2022-Oct-29 05 39 21.76 + 23 43 28.9
2022-Oct-30 05 39 25.27 + 23 46 12.0
2022-Oct-31 05 39 25.03 + 23 48 55.4
2022-Nov-01 05 39 21.01 + 23 51 39.0
2022-Nov-02 05 39 13.19 + 23 54 22.7
2022-Nov-03 05 39 01.55 + 23 57 06.4
2022-Nov-04 05 38 46.08 + 23 59 50.1
2022-Nov-05 05 38 26.75 + 24 02 33.4
2022-Nov-06 05 38 03.57 + 24 05 16.3
2022-Nov-07 05 37 36.52 + 24 07 58.6
2022-Nov-08 05 37 05.59 + 24 10 40.0
2022-Nov-09 05 36 30.80 + 24 13 20.3
2022-Nov-10 05 35 52.16 + 24 15 59.2
2022-Nov-11 05 35 09.66 + 24 18 36.3
2022-Nov-12 05 34 23.36 + 24 21 11.5
2022-Nov-13 05 33 33.26 + 24 23 44.2
2022-Nov-14 05 32 39.42 + 24 26 14.3
2022-Nov-15 05 31 41.89 + 24 28 41.2
2022-Nov-16 05 30 40.74 + 24 31 04.7
2022-Nov-17 05 29 36.02 + 24 33 24.3
2022-Nov-18 05 28 27.84 + 24 35 39.7
2022-Nov-19 05 27 16.29 + 24 37 50.4
2022-Nov-20 05 26 01.48 + 24 39 56.0
2022-Nov-21 05 24 43.53 + 24 41 56.1
2022-Nov-22 05 23 22.59 + 24 43 50.5
2022-Nov-23 05 21 58.79 + 24 45 38.6
2022-Nov-24 05 20 32.30 + 24 47 20.2
2022-Nov-25 05 19 03.31 + 24 48 54.9
2022-Nov-26 05 17 32.00 + 24 50 22.5
2022-Nov-27 05 15 58.57 + 24 51 42.7
2022-Nov-28 05 14 23.22 + 24 52 55.2
2022-Nov-29 05 12 46.17 + 24 53 59.8
2022-Nov-30 05 11 07.64 + 24 54 56.4
2022-Dec-01 05 09 27.84 + 24 55 44.9
2022-Dec-02 05 07 47.00 + 24 56 25.1
2022-Dec-03 05 06 05.35 + 24 56 57.1
2022-Dec-04 05 04 23.09 + 24 57 20.7
2022-Dec-05 05 02 40.47 + 24 57 36.1
2022-Dec-06 05 00 57.70 + 24 57 43.3
2022-Dec-07 04 59 15.01 + 24 57 42.4
2022-Dec-08 04 57 32.61 + 24 57 33.6
2022-Dec-09 04 55 50.72 + 24 57 17.2
2022-Dec-10 04 54 09.57 + 24 56 53.3
2022-Dec-11 04 52 29.35 + 24 56 22.3
2022-Dec-12 04 50 50.29 + 24 55 44.5
2022-Dec-13 04 49 12.58 + 24 55 00.4
2022-Dec-14 04 47 36.42 + 24 54 10.2
2022-Dec-15 04 46 02.01 + 24 53 14.6
2022-Dec-16 04 44 29.52 + 24 52 14.0
2022-Dec-17 04 42 59.14 + 24 51 08.8
2022-Dec-18 04 41 31.03 + 24 49 59.6
2022-Dec-19 04 40 05.36 + 24 48 47.1
2022-Dec-20 04 38 42.28 + 24 47 31.6
2022-Dec-21 04 37 21.94 + 24 46 13.9
2022-Dec-22 04 36 04.47 + 24 44 54.4
2022-Dec-23 04 34 50.01 + 24 43 33.9
2022-Dec-24 04 33 38.66 + 24 42 12.8
2022-Dec-25 04 32 30.54 + 24 40 51.7
2022-Dec-26 04 31 25.75 + 24 39 31.3
2022-Dec-27 04 30 24.34 + 24 38 12.0
2022-Dec-28 04 29 26.41 + 24 36 54.2
